[{"OBJECT_NAME":"ARIRANG-3 (KOMPSAT-3)","OBJECT_ID":"2012-025B","EPOCH":"2026-03-09T22:36:31.984704","MEAN_MOTION":14.62103113,"ECCENTRICITY":0.00067165,"INCLINATION":98.1064,"RA_OF_ASC_NODE":28.1838,"ARG_OF_PERICENTER":70.2114,"MEAN_ANOMALY":289.9811,"EPHEMERIS_TYPE":0,"CLASSIFICATION_TYPE":"U","NORAD_CAT_ID":38338,"ELEMENT_SET_NO":999,"REV_AT_EPOCH":73684,"BSTAR":0.00016351481,"MEAN_MOTION_DOT":7.75e-6,"MEAN_MOTION_DDOT":0},{"OBJECT_NAME":"CZ-6A DEB","OBJECT_ID":"2024-140BC","EPOCH":"2026-03-09T14:35:05.324928","MEAN_MOTION":14.44707338,"ECCENTRICITY":0.0074976,"INCLINATION":88.8801,"RA_OF_ASC_NODE":275.1394,"ARG_OF_PERICENTER":273.607,"MEAN_ANOMALY":85.6561,"EPHEMERIS_TYPE":0,"CLASSIFICATION_TYPE":"U","NORAD_CAT_ID":60651,"ELEMENT_SET_NO":999,"REV_AT_EPOCH":8344,"BSTAR":0.00012565,"MEAN_MOTION_DOT":4.66e-6,"MEAN_MOTION_DDOT":0}]
